NORAD_CAT_ID,OBJECT_NAME,OBJECT_TYPE,EPOCH,MEAN_MOTION,ECCENTRICITY,INCLINATION,RA_OF_ASC_NODE,ARG_OF_PERICENTER,MEAN_ANOMALY,BSTAR,MEAN_MOTION_DOT,MEAN_MOTION_DDOT,TLE_LINE0,TLE_LINE1,TLE_LINE2,SEMIMAJOR_AXIS,PERIOD,APOGEE,PERIGEE,DECAYED
52536.0,STARLINK-3964,PAYLOAD,2023-02-22 11:06:39,15.08851518,0.0001362,53.2148,77.6156,92.2173,267.8975,0.00022289,3.262e-05,0.0,0 STARLINK-3964,1 52536U 22051D   23053.46296170  .00003262  00000-0  22289-3 0  9998,2 52536  53.2148  77.6156 0001362  92.2173 267.8975 15.08851518 43681,6917.845,95.437,540.652,538.768,0.0
52536.0,STARLINK-3964,PAYLOAD,2023-02-22 19:03:35,15.08844181,0.0001268,53.2141,76.1297,80.5387,279.5749,0.00018867,2.716e-05,0.0,0 STARLINK-3964,1 52536U 22051D   23053.79416559  .00002716  00000-0  18867-3 0  9999,2 52536  53.2141  76.1297 0001268  80.5387 279.5749 15.08844181 43739,6917.868,95.437,540.61,538.855,0.0
52536.0,STARLINK-3964,PAYLOAD,2023-02-23 06:11:18,15.08837396,0.0001359,53.2152,74.0471,100.2715,259.843,0.00010242,1.342e-05,0.0,0 STARLINK-3964,1 52536U 22051D   23054.25785047  .00001342  00000-0  10242-3 0  9995,2 52536  53.2152  74.0471 0001359 100.2715 259.8430 15.08837396 43871,6917.888,95.438,540.693,538.813,0.0
52536.0,STARLINK-3964,PAYLOAD,2023-02-23 10:57:27,15.08840457,0.0001411,53.2146,73.1543,101.9434,258.1717,0.00011303,1.511e-05,0.0,0 STARLINK-3964,1 52536U 22051D   23054.45656866  .00001511  00000-0  11303-3 0  9990,2 52536  53.2146  73.1543 0001411 101.9434 258.1717 15.08840457 43837,6917.879,95.438,540.72,538.768,0.0
52536.0,STARLINK-3964,PAYLOAD,2023-02-24 10:48:14,15.08850099,0.0001455,53.215,68.6925,112.381,247.7337,0.00030025,4.495e-05,0.0,0 STARLINK-3964,1 52536U 22051D   23055.45016473  .00004495  00000-0  30025-3 0  9991,2 52536  53.2150  68.6925 0001455 112.3810 247.7337 15.08850099 43988,6917.85,95.437,540.721,538.708,0.0
52536.0,STARLINK-3964,PAYLOAD,2023-02-25 01:06:43,15.08836339,0.0001389,53.2165,66.0167,117.1332,242.9802,0.00013099,1.797e-05,0.0,0 STARLINK-3964,1 52536U 22051D   23056.04633207  .00001797  00000-0  13099-3 0  9991,2 52536  53.2165  66.0167 0001389 117.1332 242.9802 15.08836339 44146,6917.892,95.438,540.717,538.796,0.0
52536.0,STARLINK-3964,PAYLOAD,2023-02-25 09:03:38,15.08841673,0.000121,53.2151,64.5305,100.447,259.6659,0.00017583,2.512e-05,0.0,0 STARLINK-3964,1 52536U 22051D   23056.37753095  .00002512  00000-0  17583-3 0  9993,2 52536  53.2151  64.5305 0001210 100.4470 259.6659 15.08841673 44129,6917.875,95.437,540.577,538.903,0.0
52536.0,STARLINK-3964,PAYLOAD,2023-02-25 17:00:34,15.08842237,0.00012,53.2153,63.0438,99.9644,260.1484,0.0001932,2.788e-05,0.0,0 STARLINK-3964,1 52536U 22051D   23056.70873138  .00002788  00000-0  19320-3 0  9997,2 52536  53.2153  63.0438 0001200  99.9644 260.1484 15.08842237 44171,6917.874,95.437,540.569,538.908,0.0
52536.0,STARLINK-3964,PAYLOAD,2023-02-26 10:29:48,15.08860403,0.0001277,53.2162,59.7738,102.8561,257.2574,0.00078425,0.00012222,0.0,0 STARLINK-3964,1 52536U 22051D   23057.43736749  .00012222  00000-0  78425-3 0  9999,2 52536  53.2162  59.7738 0001277 102.8561 257.2574 15.08860403 44354,6917.818,95.436,540.566,538.8,0.0
52536.0,STARLINK-3964,PAYLOAD,2023-02-26 16:51:21,15.08848733,0.0001597,53.2166,58.5832,80.988,279.1293,0.00045509,6.964e-05,0.0,0 STARLINK-3964,1 52536U 22051D   23057.70233115  .00006964  00000-0  45509-3 0  9991,2 52536  53.2166  58.5832 0001597  80.9880 279.1293 15.08848733 44392,6917.854,95.437,540.823,538.614,0.0
52536.0,STARLINK-3964,PAYLOAD,2023-02-27 03:59:03,15.08837945,0.0001475,53.2184,56.5037,101.005,259.1108,8.9608e-05,1.138e-05,0.0,0 STARLINK-3964,1 52536U 22051D   23058.16601481  .00001138  00000-0  89608-4 0  9994,2 52536  53.2184  56.5037 0001475 101.0050 259.1108 15.08837945 44460,6917.887,95.438,540.772,538.731,0.0
52536.0,STARLINK-3964,PAYLOAD,2023-02-27 08:45:12,15.08855021,0.0001279,53.2163,55.6108,92.2441,267.8698,0.00067794,0.00010522,0.0,0 STARLINK-3964,1 52536U 22051D   23058.36473128  .00010522  00000-0  67794-3 0  9999,2 52536  53.2163  55.6108 0001279  92.2441 267.8698 15.08855021 44491,6917.834,95.437,540.584,538.815,0.0
52536.0,STARLINK-3964,PAYLOAD,2023-02-27 16:42:08,15.08874155,0.0001147,53.2162,54.1237,97.6258,262.4864,0.0020117,0.00031903,0.0,0 STARLINK-3964,1 52536U 22051D   23058.69592981  .00031903  00000-0  20117-2 0  9997,2 52536  53.2162  54.1237 0001147  97.6258 262.4864 15.08874155 44479,6917.776,95.435,540.434,538.848,0.0
52536.0,STARLINK-3964,PAYLOAD,2023-02-28 08:35:58,15.08883313,0.0001321,53.215,51.1506,91.4776,268.6367,0.0014177,0.00022373,0.0,0 STARLINK-3964,1 52536U 22051D   23059.35832052  .00022373  00000-0  14177-2 0  9997,2 52536  53.2150  51.1506 0001321  91.4776 268.6367 15.08883313 44576,6917.748,95.435,540.527,538.699,0.0
52536.0,STARLINK-3964,PAYLOAD,2023-02-28 16:32:54,15.08846466,0.000146,53.216,49.6637,107.4652,252.65,0.00031218,4.685e-05,0.0,0 STARLINK-3964,1 52536U 22051D   23059.68952508  .00004685  00000-0  31218-3 0  9994,2 52536  53.2160  49.6637 0001460 107.4652 252.6500 15.08846466 44625,6917.861,95.437,540.736,538.716,0.0
52536.0,STARLINK-3964,PAYLOAD,2023-03-01 05:16:01,15.08796733,0.0001461,53.2159,47.2846,124.1943,235.9188,0.000932,0.00014558,0.0,0 STARLINK-3964,1 52536U 22051D   23060.21946438  .00014558  00000-0  93200-3 0  9999,2 52536  53.2159  47.2846 0001461 124.1943 235.9188 15.08796733 44772,6918.013,95.44,540.888,538.867,0.0
52536.0,STARLINK-3964,PAYLOAD,2023-03-01 16:23:44,15.08822967,0.0001669,53.2157,45.203,120.5113,239.6043,0.0019315,0.00030571,0.0,0 STARLINK-3964,1 52536U 22051D   23060.68315373  .00030571  00000-0  19315-2 0  9995,2 52536  53.2157  45.2030 0001669 120.5113 239.6043 15.08822967 44840,6917.932,95.439,540.952,538.643,0.0
52536.0,STARLINK-3964,PAYLOAD,2023-03-02 16:14:30,15.08879654,0.0001898,53.2169,40.7411,120.2634,239.8546,0.0017563,0.00027805,0.0,0 STARLINK-3964,1 52536U 22051D   23061.67674356  .00027805  00000-0  17563-2 0  9993,2 52536  53.2169  40.7411 0001898 120.2634 239.8546 15.08879654 44929,6917.759,95.435,540.937,538.311,0.0
52536.0,STARLINK-3964,PAYLOAD,2023-03-03 08:08:20,15.08898168,0.0001995,53.2163,37.7656,127.5441,232.5733,0.0013053,0.0002058,0.0,0 STARLINK-3964,1 52536U 22051D   23062.33912386  .00020580  00000-0  13053-2 0  9998,2 52536  53.2163  37.7656 0001995 127.5441 232.5733 15.08898168 45092,6917.703,95.434,540.948,538.188,0.0
52536.0,STARLINK-3964,PAYLOAD,2023-03-03 22:26:48,15.0887112,0.0001735,53.2163,35.0886,124.5249,235.5907,0.00035415,5.357e-05,0.0,0 STARLINK-3964,1 52536U 22051D   23062.93527899  .00005357  00000-0  35415-3 0  9997,2 52536  53.2163  35.0886 0001735 124.5249 235.5907 15.08871120 45188,6917.785,95.436,540.851,538.45,0.0
52536.0,STARLINK-3964,PAYLOAD,2023-03-04 07:59:06,15.08880687,0.0001262,53.2164,33.3068,107.5305,252.5825,0.0010033,0.00015733,0.0,0 STARLINK-3964,1 52536U 22051D   23063.33271230  .00015733  00000-0  10033-2 0  9994,2 52536  53.2164  33.3068 0001262 107.5305 252.5825 15.08880687 45176,6917.756,95.435,540.494,538.748,0.0
52536.0,STARLINK-3964,PAYLOAD,2023-03-04 22:17:35,15.08837575,0.0002349,53.2171,30.628,91.0607,269.0654,0.000674,0.00010454,0.0,0 STARLINK-3964,1 52536U 22051D   23063.92888545  .00010454  00000-0  67400-3 0  9998,2 52536  53.2171  30.6280 0002349  91.0607 269.0654 15.08837575 45338,6917.888,95.438,541.378,538.128,0.0
52536.0,STARLINK-3964,PAYLOAD,2023-03-05 07:49:54,15.088348,0.0001171,53.217,28.8466,82.3219,277.7906,0.00079519,0.00012388,0.0,0 STARLINK-3964,1 52536U 22051D   23064.32632968  .00012388  00000-0  79519-3 0  9991,2 52536  53.2170  28.8466 0001171  82.3219 277.7906 15.08834800 45396,6917.896,95.438,540.571,538.951,0.0
52536.0,STARLINK-3964,PAYLOAD,2023-03-06 07:40:41,15.08893306,0.0001078,53.2168,24.3869,101.7693,258.342,0.0032139,0.00051309,0.0,0 STARLINK-3964,1 52536U 22051D   23065.31992635  .00051309  00000-0  32139-2 0  9993,2 52536  53.2168  24.3869 0001078 101.7693 258.3420 15.08893306 45548,6917.717,95.434,540.328,538.837,0.0
52536.0,STARLINK-3964,PAYLOAD,2023-03-06 20:23:47,15.08843448,0.0001739,53.2171,22.0079,91.199,268.9202,0.00097583,0.00015278,0.0,0 STARLINK-3964,1 52536U 22051D   23065.84985622  .00015278  00000-0  97583-3 0  9999,2 52536  53.2171  22.0079 0001739  91.1990 268.9202 15.08843448 45622,6917.87,95.437,540.938,538.532,0.0
52536.0,STARLINK-3964,PAYLOAD,2023-03-07 05:56:06,15.0884526,7.81e-05,53.2161,20.2217,88.4034,271.7047,0.0022667,0.00035976,0.0,0 STARLINK-3964,1 52536U 22051D   23066.24730032  .00035976  00000-0  22667-2 0  9994,2 52536  53.2161  20.2217 0000781  88.4034 271.7047 15.08845260 45688,6917.864,95.437,540.27,539.189,0.0
52536.0,STARLINK-3964,PAYLOAD,2023-03-07 07:31:29,15.08851394,9.17e-05,53.2165,19.926,75.7855,284.3239,0.0030479,0.00048569,0.0,0 STARLINK-3964,1 52536U 22051D   23066.31354099  .00048569  00000-0  30479-2 0  9999,2 52536  53.2165  19.9260 0000917  75.7855 284.3239 15.08851394 45695,6917.846,95.437,540.345,539.076,0.0
52536.0,STARLINK-3964,PAYLOAD,2023-03-08 05:46:53,15.08884739,0.0001025,53.2166,15.7637,86.9404,273.1705,0.0024354,0.00038732,0.0,0 STARLINK-3964,1 52536U 22051D   23067.24089637  .00038732  00000-0  24354-2 0  9991,2 52536  53.2166  15.7637 0001025  86.9404 273.1705 15.08884739 45832,6917.744,95.435,540.318,538.9,0.0
52536.0,STARLINK-3964,PAYLOAD,2023-03-08 20:05:22,15.08854294,0.000149,53.2174,13.0835,112.3289,247.7861,0.0016041,0.00025343,0.0,0 STARLINK-3964,1 52536U 22051D   23067.83706174  .00025343  00000-0  16041-2 0  9996,2 52536  53.2174  13.0835 0001490 112.3289 247.7861 15.08854294 45858,6917.837,95.437,540.732,538.671,0.0
52536.0,STARLINK-3964,PAYLOAD,2023-03-09 02:26:54,15.08863589,0.0001589,53.2178,11.8963,90.6157,269.5018,0.0026238,0.00041744,0.0,0 STARLINK-3964,1 52536U 22051D   23068.10202386  .00041744  00000-0  26238-2 0  9995,2 52536  53.2178  11.8963 0001589  90.6157 269.5018 15.08863589 45898,6917.808,95.436,540.773,538.574,0.0
